ESTCUBE 1               
1 39161U 13021C   22282.13393945  .00001876  00000+0  29836-3 0  9992
2 39161  97.8985 356.3793 0010636  57.6791 302.5473 14.73157344506201
FENGYUN 3C              
1 39260U 13052A   22282.32287124  .00000099  00000+0  70966-4 0  9995
2 39260  98.4485 304.6393 0010232 311.2251  48.8048 14.15947944468032
CASSIOPE                
1 39265U 13055A   22282.14602025  .00022110  00000+0  58202-3 0  9990
2 39265  80.9634 146.6165 0612022 340.8133  17.0867 14.41248762468670
ZACUBE-1 (TSHEPISOSAT)  
1 39417U 13066B   22281.89358459  .00005242  00000+0  63635-3 0  9994
2 39417  97.6498 248.3673 0058292  34.1152 326.3787 14.82731059479932
CINEMA-3 (KHUSAT-2)     
1 39426U 13066L   22281.80165348  .00001955  00000+0  30664-3 0  9991
2 39426  97.8052 216.8484 0101607 232.3108 126.8853 14.70376012475925
TRITON-1                
1 39427U 13066M   22282.35131015  .00003457  00000+0  54241-3 0  9993
2 39427  97.8171 213.2278 0109667 260.5279  98.3518 14.69300439475699
DELFI-N3XT              
1 39428U 13066N   22282.52045846  .00006305  00000+0  96367-3 0  9999
2 39428  97.8172 212.0168 0114616 273.2383  85.5716 14.69733297475468
GOMX-1                  
1 39430U 13066Q   22282.26689233  .00002714  00000+0  48654-3 0  9993
2 39430  97.7985 182.9193 0150045  46.3229 315.0331 14.60432245472909
BRITE-PL1 (LEM)         
1 39431U 13066R   22282.16106452  .00001044  00000+0  23158-3 0  9997
2 39431  97.6887 125.7151 0200111 236.1313 122.0701 14.47439551469019
ICUBE-1                 
1 39432U 13066S   22281.90583851  .00005220  00000+0  50938-3 0  9997
2 39432  97.4728 279.8507 0029088 243.5921 116.2313 14.92514034481622
HUMSAT-D                
1 39433U 13066T   22282.02370727  .00007999  00000+0  72884-3 0  9997
2 39433  97.4507 287.6831 0028018 214.4187 145.5220 14.95087927483362
VELOX-PII               
1 39438U 13066Y   22282.15766988  .00003777  00000+0  49462-3 0  9990
2 39438  97.7057 239.9965 0070685  86.4131 274.5162 14.79192801478947
FIRST-MOVE              
1 39439U 13066Z   22282.18271209  .00010796  00000+0  12271-2 0  9997
2 39439  97.6493 251.3475 0062768  27.4629 332.9880 14.84987277480017
CUBEBUG-2 (LO-74)       
1 39440U 13066AA  22281.85030735  .00003594  00000+0  48697-3 0  9999
2 39440  97.7381 234.7262 0079499 122.9020 237.9872 14.77338355477021
NEE-02 KRYSAOR          
1 39441U 13066AB  22282.35966852  .00002383  00000+0  33524-3 0  9992
2 39441  97.7496 232.3302 0081234 135.5066 225.2706 14.75984281477993
FUNCUBE-1 (AO-73)       
1 39444U 13066AE  22281.89255092  .00006549  00000+0  77226-3 0  9995
2 39444  97.6372 250.7905 0056763  21.8294 338.5321 14.83900760478340
HINCUBE                 
1 39445U 13066AF  22281.95919458  .00006352  00000+0  75281-3 0  9997
2 39445  97.6388 250.6627 0056913  23.8861 336.4975 14.83698304478471
UWE-3                   
1 39446U 13066AG  22282.14936788  .00004365  00000+0  56113-3 0  9990
2 39446  97.6989 241.3946 0069862  78.8744 282.0313 14.79919400477869
AIST-1 (RS-41)          
1 39492U 13078C   22282.46252308  .00001659  00000+0  17473-3 0  9997
2 39492  82.4169 127.5335 0021166  88.1393 272.2272 14.88630922476748
SPROUT                  
1 39770U 14029E   22282.29880888  .00016428  00000+0  16092-2 0  9999
2 39770  97.9550  40.1017 0010298  72.2248 288.0395 14.92310454454631
UNISAT-6                
1 40012U 14033C   22281.80740521  .00003733  00000+0  54476-3 0  9994
2 40012  97.6625 103.7509 0057756 150.6609 209.7865 14.75189009446696
BUGSAT-1 (TITA)         
1 40014U 14033E   22282.24113485  .00005419  00000+0  46989-3 0  9991
2 40014  98.1447 285.3495 0031676  23.7578 336.5103 14.97147209453169
DUCHIFAT-1              
1 40021U 14033M   22281.85961364  .00008790  00000+0  83678-3 0  9993
2 40021  98.0229 234.2260 0013097  32.5596 327.6428 14.93593876451623
NANOSATC-BR1            
1 40024U 14033Q   22281.82179378  .00006916  00000+0  68113-3 0  9994
2 40024  97.9942 226.9409 0012893  39.9870 320.2295 14.92324232450883
QB50P1                  
1 40025U 14033R   22282.09857667  .00006272  00000+0  63912-3 0  9996
2 40025  97.9666 220.4447 0013225  48.2171 312.0174 14.90993319451203
DTUSAT-2                
1 40030U 14033W   22281.79180843  .00005127  00000+0  53130-3 0  9992
2 40030  97.9415 215.0598 0012784  46.2703 313.9570 14.90406708450521
QB50P2                  
1 40032U 14033Y   22282.10180086  .00006366  00000+0  65849-3 0  9995
2 40032  97.9421 215.3863 0012750  46.8961 313.3321 14.90386267451068
POLYITAN-1              
1 40042U 14033AJ  22281.83960544  .00007818  00000+0  79212-3 0  9992
2 40042  97.9775 221.5365 0015267  40.8055 319.4302 14.91117627450542
TIGRISAT                
1 40043U 14033AK  22281.50945130  .00002776  00000+0  40587-3 0  9992
2 40043  97.6565 104.6978 0059628 148.9793 211.4961 14.75234180446594
AISAT                   
1 40054U 14034B   22282.09514198  .00006860  00000+0  90819-3 0  9997
2 40054  98.3658  98.1522 0011594 315.0439  44.9832 14.80215363446283
CANX-4                  
1 40055U 14034C   22282.40188689  .00001715  00000+0  25911-3 0  9990
2 40055  98.3701  83.1768 0014094   0.3393 359.7822 14.75602015445553
CANX-5                  
1 40056U 14034D   22282.40873780  .00001717  00000+0  25953-3 0  9992
2 40056  98.3703  83.1634 0014064   0.4857 359.6362 14.75598436445550
VELOX-I                 
1 40057U 14034E   22282.48557601  .00004073  00000+0  55118-3 0  9996
2 40057  98.3715  99.6625 0010056 330.1614  29.9112 14.79558082446331
METEOR-M 2              
1 40069U 14037A   22282.34472843  .00000037  00000+0  36366-4 0  9992
2 40069  98.4308 294.9467 0005659   4.2101 355.9128 14.20720877428035
DX1                     
1 40071U 14037C   22282.51264524  .00001592  00000+0  20776-3 0  9993
2 40071  98.3904 156.8277 0007565 318.5576  41.5097 14.82032352446236
UKUBE-1                 
1 40074U 14037F   22282.24865879  .00003938  00000+0  45957-3 0  9990
2 40074  98.3638 168.7944 0003527 295.2791  64.8061 14.85799196446968
FIREBIRD 3              
1 40377U 15003B   22281.67546691  .00043324  00000+0  11639-2 0  9996
2 40377  99.0814 172.0324 0092692   1.8507 358.3054 15.33471609425741
FIREBIRD 4              
1 40378U 15003C   22281.69342743  .00046700  00000+0  12496-2 0  9994
2 40378  99.0822 172.2921 0092495   1.3971 358.7506 15.33590872425758
GRIFEX                  
1 40379U 15003D   22282.22578830  .00025067  00000+0  83079-3 0  9992
2 40379  99.0937 157.5259 0111453  45.5301 315.4979 15.25407312424962
CP10 (EXOCUBE)          
1 40380U 15003E   22281.61189872  .00014343  00000+0  52691-3 0  9991
2 40380  99.1050 149.0131 0120999  73.3762 288.0714 15.21358438424356
DEORBITSAIL             
1 40719U 15032E   22282.20267156  .00005740  00000+0  78426-3 0  9992
2 40719  97.7646 156.6864 0016052   1.0373 359.0869 14.78866818390690
NUDT-PHONESAT           
1 40900U 15049B   22282.34263042  .00062321  00000+0  14489-2 0  9993
2 40900  97.3964 301.3280 0006564 221.2820 265.3756 15.42092771392127
XW-2A                   
1 40903U 15049E   22282.43697054  .00051000  00000+0  66119-3 0  9990
2 40903  97.1661 341.4063 0009406  64.8875 351.2942 15.58661495396987
XW-2C                   
1 40906U 15049H   22282.38911314  .00011172  00000+0  51730-3 0  9994
2 40906  97.4969 284.9915 0012498 329.2588 137.0602 15.20212736390228
XW-2D                   
1 40907U 15049J   22282.42970704  .00012697  00000+0  57373-3 0  9990
2 40907  97.4966 285.1210 0011266 323.8612 173.8156 15.21033892390280
LILACSAT-2              
1 40908U 15049K   22282.42047556  .00006283  00000+0  32576-3 0  9993
2 40908  97.5223 281.9477 0014575 349.2612 157.8744 15.16432012389751
XW-2E                   
1 40909U 15049L   22282.42624001  .00019794  00000+0  78029-3 0  9994
2 40909  97.4665 289.9303 0009463 299.2800 170.5470 15.25575200390779
XW-2F                   
1 40910U 15049M   22282.46883760  .00019674  00000+0  78799-3 0  9990
2 40910  97.4747 289.1344 0010492 300.4176 220.2353 15.25035367390547
XW-2B                   
1 40911U 15049N   22282.46702332  .00012695  00000+0  57571-3 0  9997
2 40911  97.4948 285.7203 0011475 326.1119 189.9230 15.20908856390172
KAITUO 1B               
1 40912U 15049P   22282.41863574  .00022146  00000+0  80009-3 0  9993
2 40912  97.4366 293.4341 0010050 256.4005 211.4528 15.28437331391145
TIANWANG 1A (TW-1A)     
1 40928U 15051D   22282.34612116  .00143710  00000+0  11081-2 0  9993
2 40928  97.0301 304.7161 0002968 333.8500 154.5132 15.71520904396041
LAPAN-A2                
1 40931U 15052B   22282.24284987  .00001220  00000+0  80104-4 0  9991
2 40931   5.9960  77.3042 0014039 341.3823  18.5815 14.76879108380192
LQSAT                   
1 40958U 15057A   22282.15502189  .00000708  00000+0  11631-3 0  9990
2 40958  97.7385 323.2145 0017021 318.0419  41.9510 14.73451859376726
ATHENOXAT 1             
1 41168U 15077C   22282.44155149  .00038050  00000+0  14811-2 0  9991
2 41168  14.9858 323.9089 0009333  47.9625  76.6760 15.23996982377702
GALASSIA                
1 41170U 15077E   22281.75593704  .00024345  00000+0  97950-3 0  9998
2 41170  14.9886 321.0174 0010081  65.8276 294.3099 15.22570300377506
VELOX-II                
1 41171U 15077F   22282.43869232  .00019646  00000+0  91519-3 0  9990
2 41171  14.9923  35.4607 0007163 259.6608 100.2906 15.17422017377007
CHUBUSAT-2              
1 41338U 16012B   22282.47192521  .00004971  00000+0  36555-3 0  9993
2 41338  31.0043  17.7186 0013118 204.2720 155.7298 15.01784705364630
CHUBUSAT-3              
1 41339U 16012C   22282.47642988  .00004237  00000+0  31029-3 0  9997
2 41339  31.0118  14.5985 0012775 212.9398 236.8385 15.01828702364635
HORYU-4                 
1 41340U 16012D   22282.22187162  .00008420  00000+0  58754-3 0  9992
2 41340  31.0057 352.2340 0012853 252.8020 107.1210 15.04008899364860
